GLOBALSTAR M063 [+]     
1 26081U 00008A   24061.01538067 -.00000052  00000+0  44785-3 0  9996
2 26081  51.9938 277.7191 0005346 120.0780  28.8151 11.86151617101491
GLOBALSTAR M062 [-]     
1 26082U 00008B   24060.89550000 -.00000048  00000+0  35998-3 0  9994
2 26082  51.9852  47.5464 0007078 180.1624 188.2575 12.43430203437747
GLOBALSTAR M060 [-]     
1 26083U 00008C   24061.09814681 -.00000110  00000+0 -19138-3 0  9995
2 26083  52.0026 300.0350 0002532 242.7551 284.1229 12.17626804 94913
GLOBALSTAR M064 [-]     
1 26084U 00008D   24061.16419433 -.00000071  00000+0  16929-3 0  9990
2 26084  52.0054  21.7282 0001184 224.9867 135.0870 11.88515780110967
GLOBALSTAR M065 [+]     
1 31571U 07020A   24060.76635196 -.00000068  00000+0  20235-3 0  9990
2 31571  51.9870 227.1527 0009905 343.1230 119.3094 12.61963588773636
GLOBALSTAR M069 [+]     
1 31573U 07020C   24060.60867847 -.00000069  00000+0  19498-3 0  9995
2 31573  51.9940 183.5990 0001438 124.8242 248.6905 12.62257249774678
GLOBALSTAR M072 [+]     
1 31574U 07020D   24060.92091269 -.00000087  00000+0  93844-4 0  9996
2 31574  52.0073 278.4907 0001257  73.1521 300.0198 12.62268329773054
GLOBALSTAR M071 [P]     
1 31576U 07020F   24060.63555694 -.00000072  00000+0  17739-3 0  9995
2 31576  52.0052 188.5972 0001844 134.3500 241.3952 12.62267882435935
